$$SOE
2460728.500000000, A.D. 2025-Feb-22 00:00:00.0000, -5.310052447504083E+08, 3.614384427231281E+08, 1.940233386852668E+07,
2460735.500000000, A.D. 2025-Mar-01 00:00:00.0000, -5.364948589780108E+08, 3.552251561333421E+08, 1.941900701974665E+07,
2460742.500000000, A.D. 2025-Mar-08 00:00:00.0000, -5.418867724766538E+08, 3.489471795594366E+08, 1.943214358452907E+07,
2460749.500000000, A.D. 2025-Mar-15 00:00:00.0000, -5.471804960434128E+08, 3.426059771057494E+08, 1.944175866830474E+07,
2460756.500000000, A.D. 2025-Mar-22 00:00:00.0000, -5.523755600767962E+08, 3.362030092132522E+08, 1.944786795915698E+07,
2460763.500000000, A.D. 2025-Mar-29 00:00:00.0000, -5.574715150742571E+08, 3.297397307638572E+08, 1.945048765302135E+07,
2460770.500000000, A.D. 2025-Apr-05 00:00:00.0000, -5.624679304423026E+08, 3.232175900757825E+08, 1.944963429682551E+07,
2460777.500000000, A.D. 2025-Apr-12 00:00:00.0000, -5.673643935458111E+08, 3.166380288939391E+08, 1.944532473440772E+07,
2460784.500000000, A.D. 2025-Apr-19 00:00:00.0000, -5.721605091841685E+08, 3.100024824945071E+08, 1.943757610005227E+07,
2460791.500000000, A.D. 2025-Apr-26 00:00:00.0000, -5.768558992224690E+08, 3.033123797010940E+08, 1.942640581786008E+07,
2460798.500000000, A.D. 2025-May-03 00:00:00.0000, -5.814502022638401E+08, 2.965691428318478E+08, 1.941183159786515E+07,
2460805.500000000, A.D. 2025-May-10 00:00:00.0000, -5.859430733340473E+08, 2.897741875862411E+08, 1.939387142679475E+07,
2460812.500000000, A.D. 2025-May-17 00:00:00.0000, -5.903341835414271E+08, 2.829289228304635E+08, 1.937254354660694E+07,
2460819.500000000, A.D. 2025-May-24 00:00:00.0000, -5.946232195380303E+08, 2.760347502268724E+08, 1.934786640030603E+07,
2460826.500000000, A.D. 2025-May-31 00:00:00.0000, -5.988098823639936E+08, 2.690930640183417E+08, 1.931985853207099E+07,
2460833.500000000, A.D. 2025-Jun-07 00:00:00.0000, -6.028938860759736E+08, 2.621052521720616E+08, 1.928853857690030E+07,
2460840.500000000, A.D. 2025-Jun-14 00:00:00.0000, -6.068749585244324E+08, 2.550726982158353E+08, 1.925392550213602E+07,
2460847.500000000, A.D. 2025-Jun-21 00:00:00.0000, -6.107528430631663E+08, 2.479967804957853E+08, 1.921603872193529E+07,
2460854.500000000, A.D. 2025-Jun-28 00:00:00.0000, -6.145272980622915E+08, 2.408788706201646E+08, 1.917489794203439E+07,
2460861.500000000, A.D. 2025-Jul-05 00:00:00.0000, -6.181980957410218E+08, 2.337203332452529E+08, 1.913052305019829E+07,
2460868.500000000, A.D. 2025-Jul-12 00:00:00.0000, -6.217650215114852E+08, 2.265225263977800E+08, 1.908293409581368E+07,
2460875.500000000, A.D. 2025-Jul-19 00:00:00.0000, -6.252278736441680E+08, 2.192868017588893E+08, 1.903215129429755E+07,
2460882.500000000, A.D. 2025-Jul-26 00:00:00.0000, -6.285864630449806E+08, 2.120145048531227E+08, 1.897819503252795E+07,
2460889.500000000, A.D. 2025-Aug-02 00:00:00.0000, -6.318406130784229E+08, 2.047069751640616E+08, 1.892108587117587E+07,
2460896.500000000, A.D. 2025-Aug-09 00:00:00.0000, -6.349901594133255E+08, 1.973655461620077E+08, 1.886084454073581E+07,
2460903.500000000, A.D. 2025-Aug-16 00:00:00.0000, -6.380349498141323E+08, 1.899915451805510E+08, 1.879749191920038E+07,
2460910.500000000, A.D. 2025-Aug-23 00:00:00.0000, -6.409748435849890E+08, 1.825862931585912E+08, 1.873104896609470E+07,
2460917.500000000, A.D. 2025-Aug-30 00:00:00.0000, -6.438097103375690E+08, 1.751511049618562E+08, 1.866153664128038E+07,
2460924.500000000, A.D. 2025-Sep-06 00:00:00.0000, -6.465394295007696E+08, 1.676872912840589E+08, 1.858897602058452E+07,
2460931.500000000, A.D. 2025-Sep-13 00:00:00.0000, -6.491638922434152E+08, 1.601961596448455E+08, 1.851338855882122E+07,
2460938.500000000, A.D. 2025-Sep-20 00:00:00.0000, -6.516830025368663E+08, 1.526790128404820E+08, 1.843479606585325E+07,
2460945.500000000, A.D. 2025-Sep-27 00:00:00.0000, -6.540966762984698E+08, 1.451371479589579E+08, 1.835322055312658E+07,
2460952.500000000, A.D. 2025-Oct-04 00:00:00.0000, -6.564048406323341E+08, 1.375718564985235E+08, 1.826868417987812E+07,
2460959.500000000, A.D. 2025-Oct-11 00:00:00.0000, -6.586074335412834E+08, 1.299844246467322E+08, 1.818120925631010E+07,
2460966.500000000, A.D. 2025-Oct-18 00:00:00.0000, -6.607044038263142E+08, 1.223761334459332E+08, 1.809081825531819E+07,
2460973.500000000, A.D. 2025-Oct-25 00:00:00.0000, -6.626957110337329E+08, 1.147482588566011E+08, 1.799753382084211E+07,
2460980.500000000, A.D. 2025-Nov-01 00:00:00.0000, -6.645813254101291E+08, 1.071020717342692E+08, 1.790137877038760E+07,
2460987.500000000, A.D. 2025-Nov-08 00:00:00.0000, -6.663612278302993E+08, 9.943883768882406E+07, 1.780237608582811E+07,
2460994.500000000, A.D. 2025-Nov-15 00:00:00.0000, -6.680354095501037E+08, 9.175981676770931E+07, 1.770054887394140E+07,
2461001.500000000, A.D. 2025-Nov-22 00:00:00.0000, -6.696038713816040E+08, 8.406626318325317E+07, 1.759592027751717E+07,
2461008.500000000, A.D. 2025-Nov-29 00:00:00.0000, -6.710666224438616E+08, 7.635942621926406E+07, 1.748851344362199E+07,
2461015.500000000, A.D. 2025-Dec-06 00:00:00.0000, -6.724236807671950E+08, 6.864055218105504E+07, 1.737835174657498E+07,
2461022.500000000, A.D. 2025-Dec-13 00:00:00.0000, -6.736750753178872E+08, 6.091088401901658E+07, 1.726545895025013E+07,
2461029.500000000, A.D. 2025-Dec-20 00:00:00.0000, -6.748208459501970E+08, 5.317165964963907E+07, 1.714985907282471E+07,
2461036.500000000, A.D. 2025-Dec-27 00:00:00.0000, -6.758610423589454E+08, 4.542411156575745E+07, 1.703157626417868E+07,
2461043.500000000, A.D. 2026-Jan-03 00:00:00.0000, -6.767957234916672E+08, 3.766946712072354E+07, 1.691063477944455E+07,
2461050.500000000, A.D. 2026-Jan-10 00:00:00.0000, -6.776249573106589E+08, 2.990894880813885E+07, 1.678705898317407E+07,
2461057.500000000, A.D. 2026-Jan-17 00:00:00.0000, -6.783488206723862E+08, 2.214377444637371E+07, 1.666087335537142E+07,
2461064.500000000, A.D. 2026-Jan-24 00:00:00.0000, -6.789673992462231E+08, 1.437515729140207E+07, 1.653210249419499E+07,
2461071.500000000, A.D. 2026-Jan-31 00:00:00.0000, -6.794807874489585E+08, 6.604306071409472E+06, 1.640077111267697E+07,
2461078.500000000, A.D. 2026-Feb-07 00:00:00.0000, -6.798890883334565E+08, -1.167575113312355E+06, 1.626690401924701E+07,
2461085.500000000, A.D. 2026-Feb-14 00:00:00.0000, -6.801924131783174E+08, -8.939287039646648E+06, 1.613052605770732E+07,
2461092.500000000, A.D. 2026-Feb-21 00:00:00.0000, -6.803908803908162E+08, -1.670963518232726E+07, 1.599166201837585E+07,
2461099.500000000, A.D. 2026-Feb-28 00:00:00.0000, -6.804846148077662E+08, -2.447742795204579E+07, 1.585033671424481E+07,
2461106.500000000, A.D. 2026-Mar-07 00:00:00.0000, -6.804737494529347E+08, -3.224147530081154E+07, 1.570657525166355E+07,
2461113.500000000, A.D. 2026-Mar-14 00:00:00.0000, -6.803584269755963E+08, -4.000059002709225E+07, 1.556040305040083E+07,
2461120.500000000, A.D. 2026-Mar-21 00:00:00.0000, -6.801387989870915E+08, -4.775358888242118E+07, 1.541184568651842E+07,
2461127.500000000, A.D. 2026-Mar-28 00:00:00.0000, -6.798150253042244E+08, -5.549929245087037E+07, 1.526092882654575E+07,
2461134.500000000, A.D. 2026-Apr-04 00:00:00.0000, -6.793872737030549E+08, -6.323652476735450E+07, 1.510767822954375E+07,
2461141.500000000, A.D. 2026-Apr-11 00:00:00.0000, -6.788557199092647E+08, -7.096411303494677E+07, 1.495211976268736E+07,
2461148.500000000, A.D. 2026-Apr-18 00:00:00.0000, -6.782205476657932E+08, -7.868088744802664E+07, 1.479427941540891E+07,
2461155.500000000, A.D. 2026-Apr-25 00:00:00.0000, -6.774819488317434E+08, -8.638568110666038E+07, 1.463418330930958E+07,
2461162.500000000, A.D. 2026-May-02 00:00:00.0000, -6.766401234815913E+08, -9.407733005193603E+07, 1.447185769879973E+07,
2461169.500000000, A.D. 2026-May-09 00:00:00.0000, -6.756952798798162E+08, -1.017546734885464E+08, 1.430732894579922E+07,
2461176.500000000, A.D. 2026-May-16 00:00:00.0000, -6.746476339527080E+08, -1.094165540562890E+08, 1.414062344526923E+07,
2461183.500000000, A.D. 2026-May-23 00:00:00.0000, -6.734974082052270E+08, -1.170618171280735E+08, 1.397176758044815E+07,
2461190.500000000, A.D. 2026-May-30 00:00:00.0000, -6.722448321611454E+08, -1.246893088149188E+08, 1.380078792453390E+07,
2461197.500000000, A.D. 2026-Jun-06 00:00:00.0000, -6.708901446439499E+08, -1.322978759515917E+08, 1.362771145030160E+07,
2461204.500000000, A.D. 2026-Jun-13 00:00:00.0000, -6.694335942327807E+08, -1.398863678636714E+08, 1.345256542755939E+07,
2461211.500000000, A.D. 2026-Jun-20 00:00:00.0000, -6.678754383940161E+08, -1.474536369894817E+08, 1.327537729335702E+07,
2461218.500000000, A.D. 2026-Jun-27 00:00:00.0000, -6.662159429862058E+08, -1.549985386966941E+08, 1.309617462269647E+07,
2461225.500000000, A.D. 2026-Jul-04 00:00:00.0000, -6.644553821381209E+08, -1.625199310687095E+08, 1.291498513613180E+07,
2461232.500000000, A.D. 2026-Jul-11 00:00:00.0000, -6.625940382459191E+08, -1.700166747929722E+08, 1.273183670989839E+07,
2461239.500000000, A.D. 2026-Jul-18 00:00:00.0000, -6.606322019968055E+08, -1.774876331256933E+08, 1.254675738189857E+07,
2461246.500000000, A.D. 2026-Jul-25 00:00:00.0000, -6.585701723949505E+08, -1.849316719304064E+08, 1.235977535129096E+07,
2461253.500000000, A.D. 2026-Aug-01 00:00:00.0000, -6.564082567418469E+08, -1.923476598385173E+08, 1.217091896314361E+07,
2461260.500000000, A.D. 2026-Aug-08 00:00:00.0000, -6.541467703564793E+08, -1.997344685676370E+08, 1.198021665536795E+07,
2461267.500000000, A.D. 2026-Aug-15 00:00:00.0000, -6.517860356204110E+08, -2.070909729471005E+08, 1.178769686658115E+07,
2461274.500000000, A.D. 2026-Aug-22 00:00:00.0000, -6.493263811088095E+08, -2.144160494291425E+08, 1.159338807445249E+07,
2461281.500000000, A.D. 2026-Aug-29 00:00:00.0000, -6.467681430964853E+08, -2.217085744584125E+08, 1.139731906225820E+07,
2461288.500000000, A.D. 2026-Sep-05 00:00:00.0000, -6.441116673056858E+08, -2.289674255680018E+08, 1.119951898354566E+07,
2461295.500000000, A.D. 2026-Sep-12 00:00:00.0000, -6.413573084409746E+08, -2.361914827060426E+08, 1.100001720374465E+07,
$$EOE